{
  "type": "FeatureCollection",
  "features": [
    {
      "type": "Feature",
      "properties": {
        "norad_id": 34765,
        "name": "IRIDIUM 33 DEB",
        "group": "iridium-33-debris",
        "lat": -6.102173746943837,
        "lon": -150.5965957693965,
        "alt_km": 749.2638581271958,
        "timestamp": "2025-12-21T11:31:43.244090+00:00",
        "meta_object_name": "IRIDIUM 33 DEB",
        "meta_object_id": "1997-051LJ",
        "meta_epoch": "2025-12-18T13:21:25.941600",
        "meta_mean_motion": 14.40479279,
        "meta_eccentricity": 0.00160914,
        "meta_inclination": 86.3386,
        "meta_ra_of_asc_node": 30.2656,
        "meta_arg_of_pericenter": 191.4295,
        "meta_mean_anomaly": 322.071,
        "meta_ephemeris_type": 0,
        "meta_classification_type": "U",
        "meta_norad_cat_id": 34765,
        "meta_element_set_no": 999,
        "meta_rev_at_epoch": 87697,
        "meta_bstar": 0.00029987235,
        "meta_mean_motion_dot": 9.74e-06,
        "meta_mean_motion_ddot": 0,
        "tle_line1": "1 34765U 97051LJ  25352.55655025  .00000974  00000+0  29987-3 0  9994",
        "tle_line2": "2 34765  86.3386  30.2656 0016091 191.4295 322.0710 14.40479279876970"
      },
      "geometry": {
        "type": "Point",
        "coordinates": [
          -150.5965957693965,
          -6.102173746943837
        ]
      }
    },
    {
      "type": "Feature",
      "properties": {
        "norad_id": 34833,
        "name": "IRIDIUM 33 DEB",
        "group": "iridium-33-debris",
        "lat": -53.88148800593242,
        "lon": 42.267718280370225,
        "alt_km": 733.7135739146443,
        "timestamp": "2025-12-21T11:31:43.244101+00:00",
        "meta_object_name": "IRIDIUM 33 DEB",
        "meta_object_id": "1997-051MH",
        "meta_epoch": "2025-12-21T03:45:30.831840",
        "meta_mean_motion": 14.52421073,
        "meta_eccentricity": 0.0021468,
        "meta_inclination": 86.3927,
        "meta_ra_of_asc_node": 47.3667,
        "meta_arg_of_pericenter": 72.8031,
        "meta_mean_anomaly": 341.7014,
        "meta_ephemeris_type": 0,
        "meta_classification_type": "U",
        "meta_norad_cat_id": 34833,
        "meta_element_set_no": 999,
        "meta_rev_at_epoch": 87837,
        "meta_bstar": 0.00044713,
        "meta_mean_motion_dot": 1.848e-05,
        "meta_mean_motion_ddot": 0,
        "tle_line1": "1 34833U 97051MH  25355.15660685  .00001848  00000+0  44713-3 0  9992",
        "tle_line2": "2 34833  86.3927  47.3667 0021468  72.8031 341.7014 14.52421073878375"
      },
      "geometry": {
        "type": "Point",
        "coordinates": [
          42.267718280370225,
          -53.88148800593242
        ]
      }
    },
    {
      "type": "Feature",
      "properties": {
        "norad_id": 34870,
        "name": "IRIDIUM 33 DEB",
        "group": "iridium-33-debris",
        "lat": -44.043693612846276,
        "lon": -53.49790739863244,
        "alt_km": 658.396854335384,
        "timestamp": "2025-12-21T11:31:43.244112+00:00",
        "meta_object_name": "IRIDIUM 33 DEB",
        "meta_object_id": "1997-051MQ",
        "meta_epoch": "2025-12-17T15:48:12.189024",
        "meta_mean_motion": 14.76525212,
        "meta_eccentricity": 0.00169592,
        "meta_inclination": 86.3102,
        "meta_ra_of_asc_node": 311.8309,
        "meta_arg_of_pericenter": 164.6796,
        "meta_mean_anomaly": 8.9227,
        "meta_ephemeris_type": 0,
        "meta_classification_type": "U",
        "meta_norad_cat_id": 34870,
        "meta_element_set_no": 999,
        "meta_rev_at_epoch": 88983,
        "meta_bstar": 0.0011120343,
        "meta_mean_motion_dot": 7.793e-05,
        "meta_mean_motion_ddot": 0,
        "tle_line1": "1 34870U 97051MQ  25351.65847441  .00007793  00000+0  11120-2 0  9991",
        "tle_line2": "2 34870  86.3102 311.8309 0016959 164.6796   8.9227 14.76525212889837"
      },
      "geometry": {
        "type": "Point",
        "coordinates": [
          -53.49790739863244,
          -44.043693612846276
        ]
      }
    },
    {
      "type": "Feature",
      "properties": {
        "norad_id": 34896,
        "name": "IRIDIUM 33 DEB",
        "group": "iridium-33-debris",
        "lat": -16.826375694263316,
        "lon": 143.8764730777427,
        "alt_km": 660.3878387594677,
        "timestamp": "2025-12-21T11:31:43.244122+00:00",
        "meta_object_name": "IRIDIUM 33 DEB",
        "meta_object_id": "1997-051MY",
        "meta_epoch": "2025-12-21T04:08:25.029024",
        "meta_mean_motion": 14.66349827,
        "meta_eccentricity": 0.0025323,
        "meta_inclination": 86.3294,
        "meta_ra_of_asc_node": 322.9021,
        "meta_arg_of_pericenter": 184.0734,
        "meta_mean_anomaly": 188.5608,
        "meta_ephemeris_type": 0,
        "meta_classification_type": "U",
        "meta_norad_cat_id": 34896,
        "meta_element_set_no": 999,
        "meta_rev_at_epoch": 87743,
        "meta_bstar": 0.00055993,
        "meta_mean_motion_dot": 3.128e-05,
        "meta_mean_motion_ddot": 0,
        "tle_line1": "1 34896U 97051MY  25355.17251191  .00003128  00000+0  55993-3 0  9996",
        "tle_line2": "2 34896  86.3294 322.9021 0025323 184.0734 188.5608 14.66349827877430"
      },
      "geometry": {
        "type": "Point",
        "coordinates": [
          143.8764730777427,
          -16.826375694263316
        ]
      }
    },
    {
      "type": "Feature",
      "properties": {
        "norad_id": 34926,
        "name": "IRIDIUM 33 DEB",
        "group": "iridium-33-debris",
        "lat": -83.15190583347739,
        "lon": -30.074106106219695,
        "alt_km": 666.071605283023,
        "timestamp": "2025-12-21T11:31:43.244132+00:00",
        "meta_object_name": "IRIDIUM 33 DEB",
        "meta_object_id": "1997-051NF",
        "meta_epoch": "2025-12-20T01:29:58.203744",
        "meta_mean_motion": 14.54723166,
        "meta_eccentricity": 0.00745564,
        "meta_inclination": 86.1315,
        "meta_ra_of_asc_node": 4.8773,
        "meta_arg_of_pericenter": 267.4346,
        "meta_mean_anomaly": 147.2463,
        "meta_ephemeris_type": 0,
        "meta_classification_type": "U",
        "meta_norad_cat_id": 34926,
        "meta_element_set_no": 999,
        "meta_rev_at_epoch": 86563,
        "meta_bstar": 0.0033633995,
        "meta_mean_motion_dot": 0.00014979,
        "meta_mean_motion_ddot": 0,
        "tle_line1": "1 34926U 97051NF  25354.06247921  .00014979  00000+0  33634-2 0  9996",
        "tle_line2": "2 34926  86.1315   4.8773 0074556 267.4346 147.2463 14.54723166865632"
      },
      "geometry": {
        "type": "Point",
        "coordinates": [
          -30.074106106219695,
          -83.15190583347739
        ]
      }
    },
    {
      "type": "Feature",
      "properties": {
        "norad_id": 34985,
        "name": "IRIDIUM 33 DEB",
        "group": "iridium-33-debris",
        "lat": 4.890811397203497,
        "lon": 53.462545923923145,
        "alt_km": 769.5260769921479,
        "timestamp": "2025-12-21T11:31:43.244143+00:00",
        "meta_object_name": "IRIDIUM 33 DEB",
        "meta_object_id": "1997-051NR",
        "meta_epoch": "2025-12-21T03:18:55.645056",
        "meta_mean_motion": 14.42041434,
        "meta_eccentricity": 0.0021643,
        "meta_inclination": 86.369,
        "meta_ra_of_asc_node": 53.2972,
        "meta_arg_of_pericenter": 191.5239,
        "meta_mean_anomaly": 198.031,
        "meta_ephemeris_type": 0,
        "meta_classification_type": "U",
        "meta_norad_cat_id": 34985,
        "meta_element_set_no": 999,
        "meta_rev_at_epoch": 87296,
        "meta_bstar": 0.00042163,
        "meta_mean_motion_dot": 1.407e-05,
        "meta_mean_motion_ddot": 0,
        "tle_line1": "1 34985U 97051NR  25355.13814404  .00001407  00000+0  42163-3 0  9996",
        "tle_line2": "2 34985  86.3690  53.2972 0021643 191.5239 198.0310 14.42041434872968"
      },
      "geometry": {
        "type": "Point",
        "coordinates": [
          53.462545923923145,
          4.890811397203497
        ]
      }
    },
    {
      "type": "Feature",
      "properties": {
        "norad_id": 35051,
        "name": "IRIDIUM 33 DEB",
        "group": "iridium-33-debris",
        "lat": 66.25202215776268,
        "lon": 176.6498370828758,
        "alt_km": 722.0031897432264,
        "timestamp": "2025-12-21T11:31:43.244153+00:00",
        "meta_object_name": "IRIDIUM 33 DEB",
        "meta_object_id": "1997-051NX",
        "meta_epoch": "2025-12-19T07:34:48.667584",
        "meta_mean_motion": 14.47625509,
        "meta_eccentricity": 0.0010483,
        "meta_inclination": 86.3238,
        "meta_ra_of_asc_node": 5.9957,
        "meta_arg_of_pericenter": 72.9006,
        "meta_mean_anomaly": 287.3345,
        "meta_ephemeris_type": 0,
        "meta_classification_type": "U",
        "meta_norad_cat_id": 35051,
        "meta_element_set_no": 999,
        "meta_rev_at_epoch": 87091,
        "meta_bstar": 0.00045048,
        "meta_mean_motion_dot": 1.68e-05,
        "meta_mean_motion_ddot": 0,
        "tle_line1": "1 35051U 97051NX  25353.31584106  .00001680  00000+0  45048-3 0  9990",
        "tle_line2": "2 35051  86.3238   5.9957 0010483  72.9006 287.3345 14.47625509870911"
      },
      "geometry": {
        "type": "Point",
        "coordinates": [
          176.6498370828758,
          66.25202215776268
        ]
      }
    }
  ]
}